NORAD_CAT_ID,OBJECT_NAME,OBJECT_TYPE,EPOCH,MEAN_MOTION,ECCENTRICITY,INCLINATION,RA_OF_ASC_NODE,ARG_OF_PERICENTER,MEAN_ANOMALY,BSTAR,MEAN_MOTION_DOT,MEAN_MOTION_DDOT,TLE_LINE0,TLE_LINE1,TLE_LINE2,SEMIMAJOR_AXIS,PERIOD,APOGEE,PERIGEE,DECAYED
53184.0,STARLINK-4257,PAYLOAD,2024-03-04 14:32:17,15.08858616,0.0001568,53.2184,183.6251,88.7734,271.3438,0.0001117,1.491e-05,0.0,0 STARLINK-4257,1 53184U 22083BE  24064.60576203  .00001491  00000-0  11170-3 0  9999,2 53184  53.2184 183.6251 0001568  88.7734 271.3438 15.08858616 90958,6917.823,95.436,540.773,538.604,0.0
53184.0,STARLINK-4257,PAYLOAD,2024-03-05 14:23:07,15.08825242,0.0001339,53.2179,179.1623,96.8937,263.2208,-0.0001042,-1.945e-05,0.0,0 STARLINK-4257,1 53184U 22083BE  24065.59939148 -.00001945  00000-0 -10420-3 0  9992,2 53184  53.2179 179.1623 0001339  96.8937 263.2208 15.08825242 91108,6917.925,95.438,540.717,538.864,0.0
53184.0,STARLINK-4257,PAYLOAD,2024-03-05 17:33:53,15.08825429,0.000131,53.2177,178.5675,87.8138,272.3004,-0.0001019,-1.909e-05,0.0,0 STARLINK-4257,1 53184U 22083BE  24065.73187255 -.00001909  00000-0 -10190-3 0  9996,2 53184  53.2177 178.5675 0001310  87.8138 272.3004 15.08825429 91751,6917.925,95.438,540.696,538.884,0.0
53184.0,STARLINK-4257,PAYLOAD,2024-03-06 11:03:07,15.08843584,0.0001297,53.2175,175.2991,90.5344,269.5796,-8.2435e-05,-1.6e-05,0.0,0 STARLINK-4257,1 53184U 22083BE  24066.46050522 -.00001600  00000-0 -82435-4 0  9993,2 53184  53.2175 175.2991 0001297  90.5344 269.5796 15.08843584 91868,6917.869,95.437,540.632,538.837,0.0
53184.0,STARLINK-4257,PAYLOAD,2024-03-06 14:13:53,15.08843537,0.0001425,53.2166,174.7047,101.897,258.2182,-4.3834e-06,-3.58e-06,0.0,0 STARLINK-4257,1 53184U 22083BE  24066.59298256 -.00000358  00000-0 -43834-5 0  9995,2 53184  53.2166 174.7047 0001425 101.8970 258.2182 15.08843537 91253,6917.87,95.437,540.72,538.749,0.0
53184.0,STARLINK-4257,PAYLOAD,2024-03-07 14:04:42,15.08830082,0.0001611,53.2173,170.247,99.6535,260.4639,0.00023247,3.413e-05,0.0,0 STARLINK-4257,1 53184U 22083BE  24067.58659732  .00003413  00000-0  23247-3 0  9992,2 53184  53.2173 170.2470 0001611  99.6535 260.4639 15.08830082 91400,6917.911,95.438,540.89,538.661,0.0
53184.0,STARLINK-4257,PAYLOAD,2024-03-08 10:44:41,15.08849059,0.0001785,53.2184,166.3812,100.2887,259.8307,0.00029243,4.37e-05,0.0,0 STARLINK-4257,1 53184U 22083BE  24068.44770781  .00004370  00000-0  29243-3 0  9991,2 53184  53.2184 166.3812 0001785 100.2887 259.8307 15.08849059 92161,6917.853,95.437,540.953,538.483,0.0
53184.0,STARLINK-4257,PAYLOAD,2024-03-08 12:20:04,15.08851477,0.0001649,53.2173,166.0836,98.3153,261.8026,0.00031695,4.761e-05,0.0,0 STARLINK-4257,1 53184U 22083BE  24068.51394628  .00004761  00000-0  31695-3 0  9999,2 53184  53.2173 166.0836 0001649  98.3153 261.8026 15.08851477 91543,6917.845,95.437,540.851,538.57,0.0
53184.0,STARLINK-4257,PAYLOAD,2024-03-08 15:30:50,15.08861201,0.0001649,53.2177,165.4891,95.3202,264.7979,0.00035604,5.386e-05,0.0,0 STARLINK-4257,1 53184U 22083BE  24068.64642077  .00005386  00000-0  35604-3 0  9995,2 53184  53.2177 165.4891 0001649  95.3202 264.7979 15.08861201 92190,6917.816,95.436,540.821,538.54,0.0
53184.0,STARLINK-4257,PAYLOAD,2024-03-09 10:35:29,15.08842851,0.0001416,53.2166,161.9201,67.8268,292.2874,6.9588e-05,8.2e-06,0.0,0 STARLINK-4257,1 53184U 22083BE  24069.44130806  .00000820  00000-0  69588-4 0  9993,2 53184  53.2166 161.9201 0001416  67.8268 292.2874 15.08842851 92316,6917.872,95.437,540.716,538.757,0.0
53184.0,STARLINK-4257,PAYLOAD,2024-03-09 12:10:51,15.08845551,0.0001439,53.2157,161.6195,84.5919,275.5237,1.9123e-05,1.6e-07,0.0,0 STARLINK-4257,1 53184U 22083BE  24069.50754522  .00000016  00000-0  19123-4 0  9994,2 53184  53.2157 161.6195 0001439  84.5919 275.5237 15.08845551 91696,6917.863,95.437,540.724,538.733,0.0
53184.0,STARLINK-4257,PAYLOAD,2024-03-10 12:01:39,15.08839428,0.0001474,53.2149,157.1582,93.0772,267.0389,-0.00011403,-2.102e-05,0.0,0 STARLINK-4257,1 53184U 22083BE  24070.50115006 -.00002102  00000-0 -11403-3 0  9996,2 53184  53.2149 157.1582 0001474  93.0772 267.0389 15.08839428 92475,6917.882,95.438,540.767,538.727,0.0
53184.0,STARLINK-4257,PAYLOAD,2024-03-11 11:52:26,15.08847527,0.0001576,53.2163,152.6979,96.4872,263.6299,0.00026957,4.006e-05,0.0,0 STARLINK-4257,1 53184U 22083BE  24071.49474811  .00004006  00000-0  26957-3 0  9990,2 53184  53.2163 152.6979 0001576  96.4872 263.6299 15.08847527 91999,6917.857,95.437,540.813,538.632,0.0
53184.0,STARLINK-4257,PAYLOAD,2024-03-12 05:21:41,15.0883448,9.76e-05,53.2151,149.4295,81.7944,278.3159,0.00014422,2.008e-05,0.0,0 STARLINK-4257,1 53184U 22083BE  24072.22339305  .00002008  00000-0  14422-3 0  9994,2 53184  53.2151 149.4295 0000976  81.7944 278.3159 15.08834480 92736,6917.897,95.438,540.437,539.087,0.0
53184.0,STARLINK-4257,PAYLOAD,2024-03-12 14:53:59,15.08842405,0.0001527,53.2162,147.6438,94.9702,265.1464,0.00011585,1.556e-05,0.0,0 STARLINK-4257,1 53184U 22083BE  24072.62082983  .00001556  00000-0  11585-3 0  9999,2 53184  53.2162 147.6438 0001527  94.9702 265.1464 15.08842405 92793,6917.873,95.437,540.794,538.682,0.0
53184.0,STARLINK-4257,PAYLOAD,2024-03-13 11:34:00,15.08844841,0.0001447,53.2149,143.7795,86.1713,273.9444,7.2828e-05,8.71e-06,0.0,0 STARLINK-4257,1 53184U 22083BE  24073.48194818  .00000871  00000-0  72828-4 0  9992,2 53184  53.2149 143.7795 0001447  86.1713 273.9444 15.08844841 92293,6917.866,95.437,540.732,538.73,0.0
53184.0,STARLINK-4257,PAYLOAD,2024-03-13 21:06:19,15.08843982,0.0001435,53.2155,141.9946,86.5667,273.5489,8.0355e-05,9.91e-06,0.0,0 STARLINK-4257,1 53184U 22083BE  24073.87938878  .00000991  00000-0  80355-4 0  9994,2 53184  53.2155 141.9946 0001435  86.5667 273.5489 15.08843982 92354,6917.868,95.437,540.726,538.741,0.0
53184.0,STARLINK-4257,PAYLOAD,2024-03-14 05:03:15,15.08839464,0.00015,53.2153,140.5093,90.5075,269.6089,0.00011512,1.545e-05,0.0,0 STARLINK-4257,1 53184U 22083BE  24074.21059034  .00001545  00000-0  11512-3 0  9995,2 53184  53.2153 140.5093 0001500  90.5075 269.6089 15.08839464 93039,6917.882,95.438,540.785,538.709,0.0
53184.0,STARLINK-4257,PAYLOAD,2024-03-14 11:24:47,15.08844069,0.0001494,53.2155,139.3205,88.4609,271.6554,0.00015236,2.138e-05,0.0,0 STARLINK-4257,1 53184U 22083BE  24074.47554780  .00002138  00000-0  15236-3 0  9997,2 53184  53.2155 139.3205 0001494  88.4609 271.6554 15.08844069 92444,6917.868,95.437,540.766,538.699,0.0
53184.0,STARLINK-4257,PAYLOAD,2024-03-15 12:50:58,15.08838311,0.000149,53.2173,134.5618,94.0841,266.0321,2.5262e-05,1.14e-06,0.0,0 STARLINK-4257,1 53184U 22083BE  24075.53539497  .00000114  00000-0  25262-4 0  9996,2 53184  53.2173 134.5618 0001490  94.0841 266.0321 15.08838311 93237,6917.886,95.438,540.781,538.72,0.0
53184.0,STARLINK-4257,PAYLOAD,2024-03-16 12:41:44,15.08842603,0.0001517,53.2175,130.0953,87.2521,272.8645,5.6212e-05,6.07e-06,0.0,0 STARLINK-4257,1 53184U 22083BE  24076.52899290  .00000607  00000-0  56212-4 0  9992,2 53184  53.2175 130.0953 0001517  87.2521 272.8645 15.08842603 92750,6917.872,95.437,540.787,538.688,0.0
53184.0,STARLINK-4257,PAYLOAD,2024-03-17 12:32:32,15.08839105,0.0001613,53.2179,125.6317,77.3031,282.8142,8.521e-05,1.068e-05,0.0,0 STARLINK-4257,1 53184U 22083BE  24077.52259682  .00001068  00000-0  85210-4 0  9990,2 53184  53.2179 125.6317 0001613  77.3031 282.8142 15.08839105 93534,6917.883,95.438,540.864,538.632,0.0
53184.0,STARLINK-4257,PAYLOAD,2024-03-18 12:23:19,15.0884282,0.0001756,53.2179,121.1719,72.1853,287.933,6.2436e-05,7.06e-06,0.0,0 STARLINK-4257,1 53184U 22083BE  24078.51619754  .00000706  00000-0  62436-4 0  9993,2 53184  53.2179 121.1719 0001756  72.1853 287.9330 15.08842820 93054,6917.872,95.437,540.952,538.522,0.0
53184.0,STARLINK-4257,PAYLOAD,2024-03-19 02:41:47,15.0884269,0.0001518,53.2169,118.497,89.9747,270.1419,5.4757e-05,5.84e-06,0.0,0 STARLINK-4257,1 53184U 22083BE  24079.11235685  .00000584  00000-0  54757-4 0  9998,2 53184  53.2169 118.4970 0001518  89.9747 270.1419 15.08842690 93771,6917.872,95.437,540.787,538.687,0.0
53184.0,STARLINK-4257,PAYLOAD,2024-03-19 09:03:19,15.08849748,0.0001422,53.216,117.3119,83.8762,276.2392,0.00012277,1.667e-05,0.0,0 STARLINK-4257,1 53184U 22083BE  24079.37731087  .00001667  00000-0  12277-3 0  9996,2 53184  53.2160 117.3119 0001422  83.8762 276.2392 15.08849748 93812,6917.851,95.437,540.699,538.732,0.0
53184.0,STARLINK-4257,PAYLOAD,2024-03-20 08:54:06,15.0884377,0.000182,53.2177,112.8537,109.2201,250.8988,4.1972e-05,3.8e-06,0.0,0 STARLINK-4257,1 53184U 22083BE  24080.37091412  .00000380  00000-0  41972-4 0  9995,2 53184  53.2177 112.8537 0001820 109.2201 250.8988 15.08843770 93961,6917.869,95.437,540.993,538.475,0.0
53184.0,STARLINK-4257,PAYLOAD,2024-03-20 12:04:53,15.08845488,0.0001715,53.217,112.2567,106.0016,254.1165,6.4781e-05,7.43e-06,0.0,0 STARLINK-4257,1 53184U 22083BE  24080.50339229  .00000743  00000-0  64781-4 0  9997,2 53184  53.2170 112.2567 0001715 106.0016 254.1165 15.08845488 93358,6917.864,95.437,540.915,538.542,0.0
53184.0,STARLINK-4257,PAYLOAD,2024-03-21 02:23:21,15.08838618,0.0001675,53.2163,109.5787,101.5175,258.6006,-3.8295e-05,-8.97e-06,0.0,0 STARLINK-4257,1 53184U 22083BE  24081.09955981 -.00000897  00000-0 -38295-4 0  9994,2 53184  53.2163 109.5787 0001675 101.5175 258.6006 15.08838618 94074,6917.885,95.438,540.908,538.591,0.0
53184.0,STARLINK-4257,PAYLOAD,2024-03-21 08:44:54,15.08837897,0.0001577,53.2165,108.3929,95.0961,265.0211,-3.0037e-05,-7.66e-06,0.0,0 STARLINK-4257,1 53184U 22083BE  24081.36452039 -.00000766  00000-0 -30037-4 0  9991,2 53184  53.2165 108.3929 0001577  95.0961 265.0211 15.08837897 93484,6917.887,95.438,540.843,538.661,0.0
53184.0,STARLINK-4257,PAYLOAD,2024-03-21 18:17:13,15.08837947,0.0001744,53.2165,106.6087,79.1728,280.9461,-1.7087e-05,-5.6e-06,0.0,0 STARLINK-4257,1 53184U 22083BE  24081.76196235 -.00000560  00000-0 -17087-4 0  9990,2 53184  53.2165 106.6087 0001744  79.1728 280.9461 15.08837947 93546,6917.887,95.438,540.958,538.545,0.0
